FOSSASAT-2E20 (TAT-O)   
1 63003U 25009DN  26068.70855016  .00016337  00000+0  61863-3 0  9998
2 63003  97.3231 146.2859 0002189 347.5575  12.5610 15.26991080121314
STARLINK-36549          
1 67510U 26012T   26068.08057952  .00022153  00000+0  81221-3 0  9997
2 67510  42.9999 317.3954 0001563 262.2929  97.7745 15.27576100  7675
